{"database":[

    {

        "fname": "Clare",
        "lname": "Ahern",
        "tel": "(599)103-3123",
        "address": "5874 Porttitor Dr",
        "city": "Clayton",
        "state": "MI",
        "zip": 97740

    },
    {

        "fname": "Esmeralda",
        "lname": "Nagel",
        "tel": "(428)586-3935",
        "address": "1649 Sed Ct",
        "city": "Roxboro",
        "state": "FL",
        "zip": 13671

    },
    {

        "fname": "Luping",
        "lname": "Landau",
        "tel": "(925)518-3116",
        "address": "7053 Magna Ct",
        "city": "Bradenton",
        "state": "VT",
        "zip": 66503

    },
    {

        "fname": "Brett",
        "lname": "Pallesen",
        "tel": "(586)366-7592",
        "address": "3082 Risus Rd",
        "city": "Washington",
        "state": "NE",
        "zip": 94540

    },
    {

        "fname": "Fredric",
        "lname": "Dewolfe",
        "tel": "(448)813-1559",
        "address": "3149 Convallis St",
        "city": "Frankfort",
        "state": "AZ",
        "zip": 22378

    },
    {

        "fname": "Robin",
        "lname": "Kostiuk",
        "tel": "(398)567-1938",
        "address": "1715 Dolor Ct",
        "city": "Eastvale",
        "state": "WA",
        "zip": 16071

    },
    {

        "fname": "Ian",
        "lname": "Kesner",
        "tel": "(693)631-8522",
        "address": "724 Orci St",
        "city": "Kearney",
        "state": "OK",
        "zip": 84730

    },
    {

        "fname": "Lucious",
        "lname": "Brennan",
        "tel": "(625)197-4869",
        "address": "1701 Mattis Ct",
        "city": "Virginia Beach",
        "state": "MO",
        "zip": 83008

    },
    {

        "fname": "Augustine",
        "lname": "Newell",
        "tel": "(793)446-9360",
        "address": "5743 At Ave",
        "city": "Roseville",
        "state": "CT",
        "zip": 38802

    },

        {
            "fname": "Arlyne",
            "lname": "Holmes",
            "tel": "(720)378-3931",
            "address": "5069 Convallis St",
            "city": "Hampton",
            "state": "OH",
            "zip": 29560
        }

    ]
}